{
    "week": 291,
    "satellites": [
        {
            "Name": "GSAT0208 (GALILEO 11)",
            "Line1": "1 41175U 15079B   24309.15564930  .00000072  00000+0  00000+0 0  9998",
            "Line2": "2 41175  55.4888 117.4650 0001563  13.9345 346.0823  1.70474201 55138",
            "SatelliteNumber": "41175",
            "Classification": "U",
            "LaunchYear": "15",
            "LaunchNumber": "079",
            "PieceOfLaunch": "B",
            "EpochYear": "24",
            "EpochDay": 309.1556493,
            "FirstDerivativeMeanMotion": 7.2e-07,
            "SecondDerivativeMeanMotion": "00000+0",
            "BSTAR": "00000+0",
            "SetNumber": "999",
            "Inclination": 55.4888,
            "RAAN": 117.465,
            "Eccentricity": 0.0001563,
            "ArgumentOfPerigee": 13.9345,
            "MeanAnomaly": 346.0823,
            "MeanMotion": 1.70474201,
            "RevolutionNumber": "5513"
        },
        {
            "Name": "GSAT0211 (GALILEO 14)",
            "Line1": "1 41549U 16030A   24308.10540867  .00000002  00000+0  00000+0 0  9991",
            "Line2": "2 41549  55.3060 237.9549 0003676 344.6232  15.3752  1.70472994 52596",
            "SatelliteNumber": "41549",
            "Classification": "U",
            "LaunchYear": "16",
            "LaunchNumber": "030",
            "PieceOfLaunch": "A",
            "EpochYear": "24",
            "EpochDay": 308.10540867,
            "FirstDerivativeMeanMotion": 2e-08,
            "SecondDerivativeMeanMotion": "00000+0",
            "BSTAR": "00000+0",
            "SetNumber": "999",
            "Inclination": 55.306,
            "RAAN": 237.9549,
            "Eccentricity": 0.0003676,
            "ArgumentOfPerigee": 344.6232,
            "MeanAnomaly": 15.3752,
            "MeanMotion": 1.70472994,
            "RevolutionNumber": "5259"
        },
        {
            "Name": "GSAT0210 (GALILEO 13)",
            "Line1": "1 41550U 16030B   24307.77685232  .00000000  00000+0  00000+0 0  9999",
            "Line2": "2 41550  55.3058 237.9622 0002432 248.5988 111.3823  1.70473499 52582",
            "SatelliteNumber": "41550",
            "Classification": "U",
            "LaunchYear": "16",
            "LaunchNumber": "030",
            "PieceOfLaunch": "B",
            "EpochYear": "24",
            "EpochDay": 307.77685232,
            "FirstDerivativeMeanMotion": 0.0,
            "SecondDerivativeMeanMotion": "00000+0",
            "BSTAR": "00000+0",
            "SetNumber": "999",
            "Inclination": 55.3058,
            "RAAN": 237.9622,
            "Eccentricity": 0.0002432,
            "ArgumentOfPerigee": 248.5988,
            "MeanAnomaly": 111.3823,
            "MeanMotion": 1.70473499,
            "RevolutionNumber": "5258"
        },
        {
            "Name": "GSAT0207 (GALILEO 15)",
            "Line1": "1 41859U 16069A   24307.46959992  .00000072  00000+0  00000+0 0  9995",
            "Line2": "2 41859  55.1562 117.4818 0001689 323.0455  36.9634  1.70474256 49313",
            "SatelliteNumber": "41859",
            "Classification": "U",
            "LaunchYear": "16",
            "LaunchNumber": "069",
            "PieceOfLaunch": "A",
            "EpochYear": "24",
            "EpochDay": 307.46959992,
            "FirstDerivativeMeanMotion": 7.2e-07,
            "SecondDerivativeMeanMotion": "00000+0",
            "BSTAR": "00000+0",
            "SetNumber": "999",
            "Inclination": 55.1562,
            "RAAN": 117.4818,
            "Eccentricity": 0.0001689,
            "ArgumentOfPerigee": 323.0455,
            "MeanAnomaly": 36.9634,
            "MeanMotion": 1.70474256,
            "RevolutionNumber": "4931"
        },
        {
            "Name": "GSAT0212 (GALILEO 16)",
            "Line1": "1 41860U 16069B   24309.08347720  .00000071  00000+0  00000+0 0  9996",
            "Line2": "2 41860  55.1551 117.4330 0002114  37.9679 322.0598  1.70474457 49596",
            "SatelliteNumber": "41860",
            "Classification": "U",
            "LaunchYear": "16",
            "LaunchNumber": "069",
            "PieceOfLaunch": "B",
            "EpochYear": "24",
            "EpochDay": 309.0834772,
            "FirstDerivativeMeanMotion": 7.1e-07,
            "SecondDerivativeMeanMotion": "00000+0",
            "BSTAR": "00000+0",
            "SetNumber": "999",
            "Inclination": 55.1551,
            "RAAN": 117.433,
            "Eccentricity": 0.0002114,
            "ArgumentOfPerigee": 37.9679,
            "MeanAnomaly": 322.0598,
            "MeanMotion": 1.70474457,
            "RevolutionNumber": "4959"
        },
        {
            "Name": "GSAT0213 (GALILEO 17)",
            "Line1": "1 41861U 16069C   24307.69206995  .00000072  00000+0  00000+0 0  9991",
            "Line2": "2 41861  55.1559 117.4786 0001678 267.7778  92.2223  1.70474845 49443",
            "SatelliteNumber": "41861",
            "Classification": "U",
            "LaunchYear": "16",
            "LaunchNumber": "069",
            "PieceOfLaunch": "C",
            "EpochYear": "24",
            "EpochDay": 307.69206995,
            "FirstDerivativeMeanMotion": 7.2e-07,
            "SecondDerivativeMeanMotion": "00000+0",
            "BSTAR": "00000+0",
            "SetNumber": "999",
            "Inclination": 55.1559,
            "RAAN": 117.4786,
            "Eccentricity": 0.0001678,
            "ArgumentOfPerigee": 267.7778,
            "MeanAnomaly": 92.2223,
            "MeanMotion": 1.70474845,
            "RevolutionNumber": "4944"
        },
        {
            "Name": "GSAT0214 (GALILEO 18)",
            "Line1": "1 41862U 16069D   24309.59720307  .00000071  00000+0  00000+0 0  9990",
            "Line2": "2 41862  55.1554 117.4192 0000761 264.5664  95.4361  1.70474400 49592",
            "SatelliteNumber": "41862",
            "Classification": "U",
            "LaunchYear": "16",
            "LaunchNumber": "069",
            "PieceOfLaunch": "D",
            "EpochYear": "24",
            "EpochDay": 309.59720307,
            "FirstDerivativeMeanMotion": 7.1e-07,
            "SecondDerivativeMeanMotion": "00000+0",
            "BSTAR": "00000+0",
            "SetNumber": "999",
            "Inclination": 55.1554,
            "RAAN": 117.4192,
            "Eccentricity": 7.61e-05,
            "ArgumentOfPerigee": 264.5664,
            "MeanAnomaly": 95.4361,
            "MeanMotion": 1.704744,
            "RevolutionNumber": "4959"
        },
        {
            "Name": "GSAT0215 (GALILEO 19)",
            "Line1": "1 43055U 17079A   24308.91362019  .00000007  00000+0  00000+0 0  9994",
            "Line2": "2 43055  55.2831 237.7525 0002111 294.1117  65.8820  1.70473740 42923",
            "SatelliteNumber": "43055",
            "Classification": "U",
            "LaunchYear": "17",
            "LaunchNumber": "079",
            "PieceOfLaunch": "A",
            "EpochYear": "24",
            "EpochDay": 308.91362019,
            "FirstDerivativeMeanMotion": 7e-08,
            "SecondDerivativeMeanMotion": "00000+0",
            "BSTAR": "00000+0",
            "SetNumber": "999",
            "Inclination": 55.2831,
            "RAAN": 237.7525,
            "Eccentricity": 0.0002111,
            "ArgumentOfPerigee": 294.1117,
            "MeanAnomaly": 65.882,
            "MeanMotion": 1.7047374,
            "RevolutionNumber": "4292"
        },
        {
            "Name": "GSAT0216 (GALILEO 20)",
            "Line1": "1 43056U 17079B   24307.44544370 -.00000002  00000+0  00000+0 0  9990",
            "Line2": "2 43056  55.2842 237.7928 0003644 294.2486  65.7182  1.70473900 42912",
            "SatelliteNumber": "43056",
            "Classification": "U",
            "LaunchYear": "17",
            "LaunchNumber": "079",
            "PieceOfLaunch": "B",
            "EpochYear": "24",
            "EpochDay": 307.4454437,
            "FirstDerivativeMeanMotion": -2e-08,
            "SecondDerivativeMeanMotion": "00000+0",
            "BSTAR": "00000+0",
            "SetNumber": "999",
            "Inclination": 55.2842,
            "RAAN": 237.7928,
            "Eccentricity": 0.0003644,
            "ArgumentOfPerigee": 294.2486,
            "MeanAnomaly": 65.7182,
            "MeanMotion": 1.704739,
            "RevolutionNumber": "4291"
        },
        {
            "Name": "GSAT0217 (GALILEO 21)",
            "Line1": "1 43057U 17079C   24308.25256010  .00000003  00000+0  00000+0 0  9992",
            "Line2": "2 43057  55.2816 237.7692 0003380 310.7506  49.2311  1.70473850 42911",
            "SatelliteNumber": "43057",
            "Classification": "U",
            "LaunchYear": "17",
            "LaunchNumber": "079",
            "PieceOfLaunch": "C",
            "EpochYear": "24",
            "EpochDay": 308.2525601,
            "FirstDerivativeMeanMotion": 3e-08,
            "SecondDerivativeMeanMotion": "00000+0",
            "BSTAR": "00000+0",
            "SetNumber": "999",
            "Inclination": 55.2816,
            "RAAN": 237.7692,
            "Eccentricity": 0.000338,
            "ArgumentOfPerigee": 310.7506,
            "MeanAnomaly": 49.2311,
            "MeanMotion": 1.7047385,
            "RevolutionNumber": "4291"
        }
    ]
}